[{"OBJECT_NAME":"ZIYUAN 1-02C (ZY 1-02C)","OBJECT_ID":"2011-079A","EPOCH":"2026-03-10T00:21:45.280224","MEAN_MOTION":14.38123973,"ECCENTRICITY":0.00053834,"INCLINATION":98.4167,"RA_OF_ASC_NODE":138.3624,"ARG_OF_PERICENTER":238.9134,"MEAN_ANOMALY":241.9717,"EPHEMERIS_TYPE":0,"CLASSIFICATION_TYPE":"U","NORAD_CAT_ID":38038,"ELEMENT_SET_NO":999,"REV_AT_EPOCH":74495,"BSTAR":0.00018700518,"MEAN_MOTION_DOT":5.24e-6,"MEAN_MOTION_DDOT":0},{"OBJECT_NAME":"DMSP 5D-2 F13 DEB","OBJECT_ID":"1995-015FK","EPOCH":"2026-03-08T07:46:49.275552","MEAN_MOTION":14.38475199,"ECCENTRICITY":0.00033952,"INCLINATION":98.6845,"RA_OF_ASC_NODE":104.4115,"ARG_OF_PERICENTER":326.5562,"MEAN_ANOMALY":33.5409,"EPHEMERIS_TYPE":0,"CLASSIFICATION_TYPE":"U","NORAD_CAT_ID":40612,"ELEMENT_SET_NO":999,"REV_AT_EPOCH":56484,"BSTAR":0.0022968529,"MEAN_MOTION_DOT":6.975e-5,"MEAN_MOTION_DDOT":0}]
